[{"OBJECT_NAME":"LOPEN","OBJECT_ID":"2024-149F","EPOCH":"2026-03-09T17:31:10.682400","MEAN_MOTION":15.36629582,"ECCENTRICITY":8.652e-5,"INCLINATION":97.3812,"RA_OF_ASC_NODE":151.5309,"ARG_OF_PERICENTER":189.0263,"MEAN_ANOMALY":171.0966,"EPHEMERIS_TYPE":0,"CLASSIFICATION_TYPE":"U","NORAD_CAT_ID":60473,"ELEMENT_SET_NO":999,"REV_AT_EPOCH":8697,"BSTAR":0.00048871089,"MEAN_MOTION_DOT":0.00017417,"MEAN_MOTION_DDOT":0},{"OBJECT_NAME":"STARLINK-35085","OBJECT_ID":"2025-192R","EPOCH":"2026-03-09T17:42:00.572832","MEAN_MOTION":15.36219796,"ECCENTRICITY":3.993e-5,"INCLINATION":53.1594,"RA_OF_ASC_NODE":231.98,"ARG_OF_PERICENTER":74.5933,"MEAN_ANOMALY":285.5115,"EPHEMERIS_TYPE":0,"CLASSIFICATION_TYPE":"U","NORAD_CAT_ID":65419,"ELEMENT_SET_NO":999,"REV_AT_EPOCH":2939,"BSTAR":0.0010199215,"MEAN_MOTION_DOT":0.00036316,"MEAN_MOTION_DDOT":0}]
